[{"OBJECT_NAME":"STARLINK-31445","OBJECT_ID":"2024-056S","EPOCH":"2026-03-09T18:19:03.882432","MEAN_MOTION":15.2756585,"ECCENTRICITY":0.0001523,"INCLINATION":42.9999,"RA_OF_ASC_NODE":237.3767,"ARG_OF_PERICENTER":276.6676,"MEAN_ANOMALY":83.4003,"EPHEMERIS_TYPE":0,"CLASSIFICATION_TYPE":"U","NORAD_CAT_ID":59312,"ELEMENT_SET_NO":999,"REV_AT_EPOCH":11108,"BSTAR":-5.7292567e-5,"MEAN_MOTION_DOT":-1.838e-5,"MEAN_MOTION_DDOT":0},{"OBJECT_NAME":"TEVEL2-3","OBJECT_ID":"2025-052J","EPOCH":"2026-03-09T15:29:22.754400","MEAN_MOTION":15.30377031,"ECCENTRICITY":0.0004761,"INCLINATION":97.3994,"RA_OF_ASC_NODE":324.7775,"ARG_OF_PERICENTER":105.7353,"MEAN_ANOMALY":254.4413,"EPHEMERIS_TYPE":0,"CLASSIFICATION_TYPE":"U","NORAD_CAT_ID":63218,"ELEMENT_SET_NO":999,"REV_AT_EPOCH":5485,"BSTAR":0.00069446,"MEAN_MOTION_DOT":0.00020365,"MEAN_MOTION_DDOT":0}]
